[{"OBJECT_NAME":"STARLINK-2620","OBJECT_ID":"2021-040AB","EPOCH":"2026-03-09T14:50:18.769920","MEAN_MOTION":15.3020834,"ECCENTRICITY":0.0002071,"INCLINATION":53.1616,"RA_OF_ASC_NODE":178.4535,"ARG_OF_PERICENTER":50.3086,"MEAN_ANOMALY":309.8098,"EPHEMERIS_TYPE":0,"CLASSIFICATION_TYPE":"U","NORAD_CAT_ID":48453,"ELEMENT_SET_NO":999,"REV_AT_EPOCH":26667,"BSTAR":0.00047094,"MEAN_MOTION_DOT":0.00013618,"MEAN_MOTION_DDOT":0},{"OBJECT_NAME":"TEVEL2-1","OBJECT_ID":"2025-052H","EPOCH":"2026-03-09T15:32:51.927072","MEAN_MOTION":15.30341923,"ECCENTRICITY":0.0004767,"INCLINATION":97.3991,"RA_OF_ASC_NODE":324.7682,"ARG_OF_PERICENTER":104.8919,"MEAN_ANOMALY":255.2849,"EPHEMERIS_TYPE":0,"CLASSIFICATION_TYPE":"U","NORAD_CAT_ID":63217,"ELEMENT_SET_NO":999,"REV_AT_EPOCH":5485,"BSTAR":0.000706,"MEAN_MOTION_DOT":0.00020683,"MEAN_MOTION_DDOT":0}]
